OBJECT_NAME,OBJECT_ID,EPOCH,MEAN_MOTION,ECCENTRICITY,INCLINATION,RA_OF_ASC_NODE,ARG_OF_PERICENTER,MEAN_ANOMALY,EPHEMERIS_TYPE,CLASSIFICATION_TYPE,NORAD_CAT_ID,ELEMENT_SET_NO,REV_AT_EPOCH,BSTAR,MEAN_MOTION_DOT,MEAN_MOTION_DDOT
CUTE-1 (CO-55),2003-031E,2026-05-19T22:30:24.996384,14.24316405,.00082856,98.6744,148.8520,267.2819,92.7412,0,U,27844,999,18765,.96398888E-4,.179E-5,0
CUBESAT XI-IV (CO-57),2003-031J,2026-05-19T11:46:10.668000,14.23603827,.00082536,98.6775,148.1459,290.1420,69.8871,0,U,27848,999,18729,.77857942E-4,.134E-5,0
CUBESAT XI-V,2005-043F,2026-05-19T09:19:42.308832,14.72545772,.00128675,98.2953,294.4126,299.2337,60.7582,0,U,28895,999,9751,.1252552E-3,.744E-5,0
CUTE-1.7+APD II (CO-65),2008-021C,2026-05-19T22:33:23.171328,15.09153009,.00105822,97.8271,120.7807,119.3937,240.8349,0,U,32785,999,98093,.20834862E-3,.3244E-4,0
CANX-2,2008-021H,2026-05-19T21:47:25.439712,15.05384884,.00115235,97.8620,119.1448,133.6732,226.5451,0,U,32790,999,98055,.14813802E-3,.2061E-4,0
SEEDS II (CO-66),2008-021J,2026-05-19T22:09:18.367200,15.31684611,.000472,97.7525,136.4962,70.7041,289.4710,0,U,32791,999,98296,.45792242E-3,.13942E-3,0
SWISSCUBE,2009-051B,2026-05-19T16:57:16.306272,14.62419385,.00057625,98.4054,47.0974,310.7526,49.3174,0,U,35932,999,88499,.12684865E-3,.592E-5,0
BEESAT-1,2009-051C,2026-05-19T13:32:29.986080,14.61667665,.00045702,98.3983,46.6478,330.6866,29.4077,0,U,35933,999,88500,.11149225E-3,.506E-5,0
ITUPSAT1,2009-051E,2026-05-19T04:30:03.017088,14.60391532,.00069974,98.4068,45.4878,339.3599,20.7317,0,U,35935,999,88450,.10392571E-3,.454E-5,0
TISAT 1,2010-035E,2026-05-19T13:22:57.222336,15.30510479,.00029191,98.0707,83.5972,41.2650,318.8809,0,U,36799,999,86332,.46939038E-3,.13773E-3,0
AEROCUBE 4.5A,2012-048K,2026-05-19T10:02:39.797088,15.79455087,.00184129,64.6283,130.7793,216.0663,143.9250,0,U,38767,999,36809,.6626807E-3,.123628E-2,0
STRAND-1,2013-009E,2026-05-19T17:16:28.806240,14.37144504,.00078006,98.3916,320.6562,322.9996,37.0652,0,U,39090,999,69297,.63848243E-4,.147E-5,0
BRITE-AUSTRIA,2013-009F,2026-05-19T22:18:18.285120,14.36529628,.00095013,98.3988,320.0657,330.8655,29.2001,0,U,39091,999,69299,.49288003E-4,.102E-5,0
NEE-01 PEGASO,2013-018B,2026-05-19T22:14:57.488928,14.93502115,.00113722,98.1188,283.1528,255.2186,104.7773,0,U,39151,999,70648,.1513037E-3,.1532E-4,0
POPACS 2,2013-055E,2026-05-19T20:28:42.356928,14.90542086,.04184976,80.9909,176.6126,284.9360,70.5884,0,U,39269,999,65899,.19456973E-3,.11315E-3,0
POPACS 3,2013-055F,2026-05-19T14:17:31.920576,14.55402350,.05547226,81.0018,260.1669,156.9410,205.7769,0,U,39270,999,63439,.29805989E-3,.12545E-3,0
ZACUBE-1 (TSHEPISOSAT),2013-066B,2026-05-19T21:02:32.912448,15.00948884,.00409943,97.8123,102.0604,347.8818,12.1416,0,U,39417,999,67648,.23956724E-3,.3044E-4,0
WNISAT-1,2013-066H,2026-05-19T22:29:25.071072,14.58022663,.01622004,97.7168,291.1040,321.2806,37.6857,0,U,39423,999,66261,.6373689E-4,.299E-5,0
TRITON-1,2013-066M,2026-05-19T22:21:18.828288,14.81573275,.00894546,97.8270,50.3824,327.4859,32.0863,0,U,39427,999,66990,.2307386E-3,.1883E-4,0
GOMX-1,2013-066Q,2026-05-19T23:51:09.553248,14.69335335,.01290349,97.6495,342.2350,167.3869,193.0620,0,U,39430,999,66577,.21078584E-3,.1363E-4,0
CUBEBUG-2 (LO-74),2013-066AA,2026-05-19T14:11:56.112288,14.93514845,.00592915,97.8895,88.4584,121.3860,239.3178,0,U,39440,999,67272,.21261486E-3,.2255E-4,0
NEE-02 KRYSAOR,2013-066AB,2026-05-19T06:22:11.847360,14.86495337,.0066597,97.8886,78.6919,163.2693,197.0741,0,U,39441,999,67190,.10953E-3,.95E-5,0
FUNCUBE-1 (AO-73),2013-066AE,2026-05-19T21:07:13.054944,15.09086227,.00348521,97.8266,110.7464,301.7800,58.0035,0,U,39444,999,67539,.33982096E-3,.5392E-4,0
UWE-3,2013-066AG,2026-05-19T20:57:05.279328,14.96754231,.00504162,97.8681,95.7656,55.1859,305.4090,0,U,39446,999,67334,.25518464E-3,.2931E-4,0
BRITE-CA1 (TORONTO),2014-033L,2026-05-19T21:48:14.872608,14.72633844,.00787575,97.9701,269.3647,8.4972,351.7549,0,U,40020,999,63805,.69051437E-4,.408E-5,0
DUCHIFAT-1,2014-033M,2026-05-19T02:57:37.636128,15.59011194,.00062066,98.0491,194.3373,171.2568,188.8795,0,U,40021,999,65121,.78320212E-3,.61236E-3,0
NANOSATC-BR1,2014-033Q,2026-05-19T12:17:47.813280,15.30457042,.00016539,98.0737,169.3799,282.2324,77.8729,0,U,40024,999,64959,.38964231E-3,.11395E-3,0
QB50P1,2014-033R,2026-05-19T22:30:24.762240,15.17774312,.00076469,98.0974,149.1137,333.4297,26.6542,0,U,40025,999,64874,.26895034E-3,.536E-4,0
QB50P2,2014-033Y,2026-05-19T23:06:34.359552,15.14755956,.00056499,98.0754,135.0967,272.1099,87.9484,0,U,40032,999,64839,.23557952E-3,.4295E-4,0
PERSEUS-M2,2014-033AD,2026-05-19T23:03:42.776928,14.95417893,.0013193,97.9967,89.9327,39.4016,320.8161,0,U,40037,999,64656,.13154459E-3,.1395E-4,0
